{
  "norad_id": 66966,
  "name": "STARLINK-36139",
  "history": [
    {
      "epoch": "2026-03-28T19:22:19.272000Z",
      "apogee_km": 483.3452548044688,
      "perigee_km": 482.6303256013298,
      "latitude_deg": 4.002280993459348e-05,
      "longitude_deg": 158.47202619840417,
      "height_km": 482.91318309725864,
      "semi_major_axis_km": 6861.124790202899,
      "eccentricity": 5.21e-05,
      "inclination_deg": 43.0013,
      "raan_deg": 275.2746,
      "arg_perigee_deg": 245.2951,
      "mean_anomaly_deg": 114.7847,
      "mean_motion_rev_day": 15.27600474
    },
    {
      "epoch": "2026-03-29T04:47:15.304416Z",
      "apogee_km": 484.74011346657426,
      "perigee_km": 481.22996343170416,
      "latitude_deg": 1.991054523743972e-05,
      "longitude_deg": 14.634152882120059,
      "height_km": 482.4631953609908,
      "semi_major_axis_km": 6861.122038449139,
      "eccentricity": 0.0002558,
      "inclination_deg": 42.9994,
      "raan_deg": 273.0569,
      "arg_perigee_deg": 279.8208,
      "mean_anomaly_deg": 80.2355,
      "mean_motion_rev_day": 15.27601393
    },
    {
      "epoch": "2026-03-30T04:19:36.033888Z",
      "apogee_km": 484.0273075087998,
      "perigee_km": 481.94838668012926,
      "latitude_deg": -4.452473233465784e-06,
      "longitude_deg": 15.043838577365701,
      "height_km": 482.74190138961166,
      "semi_major_axis_km": 6861.124847094464,
      "eccentricity": 0.0001515,
      "inclination_deg": 43.0019,
      "raan_deg": 267.5197,
      "arg_perigee_deg": 271.2654,
      "mean_anomaly_deg": 88.8024,
      "mean_motion_rev_day": 15.27600455
    }
  ]
}